[Satellite]
VERSION=1.1
NAME=SDO
NICKNAME=SDO
TLE1=1 36395U 10005A   20157.42544726 -.00000065  00000-0  00000-0 0  9993
TLE2=2 36395  30.3042 121.5077 0001698 342.2486 202.0457  1.00271547 37979
STATUS=0
